[{"OBJECT_NAME":"CENTAURI-7","OBJECT_ID":"2025-009DD","EPOCH":"2026-03-09T18:21:07.569216","MEAN_MOTION":14.97068612,"ECCENTRICITY":0.00019728,"INCLINATION":97.7123,"RA_OF_ASC_NODE":150.3372,"ARG_OF_PERICENTER":133.1699,"MEAN_ANOMALY":226.9688,"EPHEMERIS_TYPE":0,"CLASSIFICATION_TYPE":"U","NORAD_CAT_ID":62708,"ELEMENT_SET_NO":999,"REV_AT_EPOCH":6258,"BSTAR":0.00048082234,"MEAN_MOTION_DOT":5.487e-5,"MEAN_MOTION_DDOT":0},{"OBJECT_NAME":"STARLINK-35788","OBJECT_ID":"2025-280L","EPOCH":"2026-03-09T23:39:18.558144","MEAN_MOTION":14.98331939,"ECCENTRICITY":0.00020887,"INCLINATION":70.0032,"RA_OF_ASC_NODE":333.5703,"ARG_OF_PERICENTER":267.0048,"MEAN_ANOMALY":93.0873,"EPHEMERIS_TYPE":0,"CLASSIFICATION_TYPE":"U","NORAD_CAT_ID":66831,"ELEMENT_SET_NO":999,"REV_AT_EPOCH":1612,"BSTAR":0.00071711575,"MEAN_MOTION_DOT":8.474e-5,"MEAN_MOTION_DDOT":0}]
